{"type": "FeatureCollection", "features": [{"type": "Feature", "properties": {"norad_id": 26766, "name": "INTELSAT 10 (IS-10)", "group": "intelsat", "lat": -8.577042800588027, "lon": -22.17946671741738, "alt_km": 36104.77537286887, "timestamp": "2025-12-12T07:43:20.170985+00:00", "meta": {"OBJECT_NAME": "INTELSAT 10 (IS-10)", "OBJECT_ID": "2001-019A", "EPOCH": "2025-12-11T14:11:41.135712", "MEAN_MOTION": 0.99078808, "ECCENTRICITY": 0.00077853, "INCLINATION": 8.6274, "RA_OF_ASC_NODE": 61.1692, "ARG_OF_PERICENTER": 224.4537, "MEAN_ANOMALY": 151.554, "EPHEMERIS_TYPE": 0, "CLASSIFICATION_TYPE": "U", "NORAD_CAT_ID": 26766, "ELEMENT_SET_NO": 999, "REV_AT_EPOCH": 4372, "BSTAR": 0, "MEAN_MOTION_DOT": -2.86e-06, "MEAN_MOTION_DDOT": 0}, "tle": {"line1": "1 26766U 01019A   25345.59144833 -.00000286  00000+0  00000+0 0  9999", "line2": "2 26766   8.6274  61.1692 0007785 224.4537 151.5540  0.99078808 43721"}}, "geometry": {"type": "Point", "coordinates": [-22.17946671741738, -8.577042800588027]}}, {"type": "Feature", "properties": {"norad_id": 26900, "name": "INTELSAT 902 (IS-902)", "group": "intelsat", "lat": 5.401217383336439, "lon": 146.88084504446184, "alt_km": 35792.3478279565, "timestamp": "2025-12-12T07:43:20.171009+00:00", "meta": {"OBJECT_NAME": "INTELSAT 902 (IS-902)", "OBJECT_ID": "2001-039A", "EPOCH": "2025-12-11T04:42:42.842016", "MEAN_MOTION": 1.00272526, "ECCENTRICITY": 0.00044264, "INCLINATION": 5.6424, "RA_OF_ASC_NODE": 74.0881, "ARG_OF_PERICENTER": 184.9809, "MEAN_ANOMALY": 201.6699, "EPHEMERIS_TYPE": 0, "CLASSIFICATION_TYPE": "U", "NORAD_CAT_ID": 26900, "ELEMENT_SET_NO": 999, "REV_AT_EPOCH": 8881, "BSTAR": 0, "MEAN_MOTION_DOT": -2.78e-06, "MEAN_MOTION_DDOT": 0}, "tle": {"line1": "1 26900U 01039A   25345.19632919 -.00000278  00000+0  00000+0 0  9995", "line2": "2 26900   5.6424  74.0881 0004426 184.9809 201.6699  1.00272526 88816"}}, "geometry": {"type": "Point", "coordinates": [146.88084504446184, 5.401217383336439]}}, {"type": "Feature", "properties": {"norad_id": 27380, "name": "INTELSAT 904 (IS-904)", "group": "intelsat", "lat": 6.438626233592794, "lon": 165.6128230037408, "alt_km": 35789.04728082472, "timestamp": "2025-12-12T07:43:20.171025+00:00", "meta": {"OBJECT_NAME": "INTELSAT 904 (IS-904)", "OBJECT_ID": "2002-007A", "EPOCH": "2025-12-11T15:04:21.093888", "MEAN_MOTION": 1.00272838, "ECCENTRICITY": 0.00015232, "INCLINATION": 6.4523, "RA_OF_ASC_NODE": 71.4451, "ARG_OF_PERICENTER": 223.2584, "MEAN_ANOMALY": 340.4619, "EPHEMERIS_TYPE": 0, "CLASSIFICATION_TYPE": "U", "NORAD_CAT_ID": 27380, "ELEMENT_SET_NO": 999, "REV_AT_EPOCH": 4988, "BSTAR": 0, "MEAN_MOTION_DOT": -2.19e-06, "MEAN_MOTION_DDOT": 0}, "tle": {"line1": "1 27380U 02007A   25345.62802192 -.00000219  00000+0  00000+0 0  9999", "line2": "2 27380   6.4523  71.4451 0001523 223.2584 340.4619  1.00272838 49888"}}, "geometry": {"type": "Point", "coordinates": [165.6128230037408, 6.438626233592794]}}, {"type": "Feature", "properties": {"norad_id": 27426, "name": "DIRECTV 5 (TEMPO 1)", "group": "intelsat", "lat": 0.7305806502908632, "lon": 86.95302297704778, "alt_km": 35800.73471444148, "timestamp": "2025-12-12T07:43:20.171038+00:00", "meta": {"OBJECT_NAME": "DIRECTV 5 (TEMPO 1)", "OBJECT_ID": "2002-023A", "EPOCH": "2025-12-11T16:24:43.396704", "MEAN_MOTION": 1.00271902, "ECCENTRICITY": 0.00035071, "INCLINATION": 4.3998, "RA_OF_ASC_NODE": 77.665, "ARG_OF_PERICENTER": 194.3782, "MEAN_ANOMALY": 304.6537, "EPHEMERIS_TYPE": 0, "CLASSIFICATION_TYPE": "U", "NORAD_CAT_ID": 27426, "ELEMENT_SET_NO": 999, "REV_AT_EPOCH": 8624, "BSTAR": 0, "MEAN_MOTION_DOT": -5e-07, "MEAN_MOTION_DDOT": 0}, "tle": {"line1": "1 27426U 02023A   25345.68383561 -.00000050  00000+0  00000+0 0  9991", "line2": "2 27426   4.3998  77.6650 0003507 194.3782 304.6537  1.00271902 86246"}}, "geometry": {"type": "Point", "coordinates": [86.95302297704778, 0.7305806502908632]}}, {"type": "Feature", "properties": {"norad_id": 27438, "name": "INTELSAT 905 (IS-905)", "group": "intelsat", "lat": -1.30246997800279, "lon": 59.98935374891172, "alt_km": 35796.14930860598, "timestamp": "2025-12-12T07:43:20.171052+00:00", "meta": {"OBJECT_NAME": "INTELSAT 905 (IS-905)", "OBJECT_ID": "2002-027A", "EPOCH": "2025-12-11T12:11:37.320576", "MEAN_MOTION": 1.00272852, "ECCENTRICITY": 0.00027503, "INCLINATION": 6.283, "RA_OF_ASC_NODE": 72.0704, "ARG_OF_PERICENTER": 196.0234, "MEAN_ANOMALY": 218.0777, "EPHEMERIS_TYPE": 0, "CLASSIFICATION_TYPE": "U", "NORAD_CAT_ID": 27438, "ELEMENT_SET_NO": 999, "REV_AT_EPOCH": 4948, "BSTAR": 0, "MEAN_MOTION_DOT": 1e-06, "MEAN_MOTION_DDOT": 0}, "tle": {"line1": "1 27438U 02027A   25345.50807084  .00000100  00000+0  00000+0 0  9995", "line2": "2 27438   6.2830  72.0704 0002750 196.0234 218.0777  1.00272852 49488"}}, "geometry": {"type": "Point", "coordinates": [59.98935374891172, -1.30246997800279]}}, {"type": "Feature", "properties": {"norad_id": 27445, "name": "GALAXY 3C (G-3C)", "group": "intelsat", "lat": 1.2231905424522125, "lon": 102.19313403692097, "alt_km": 35784.38108067431, "timestamp": "2025-12-12T07:43:20.171064+00:00", "meta": {"OBJECT_NAME": "GALAXY 3C (G-3C)", "OBJECT_ID": "2002-030A", "EPOCH": "2025-12-11T23:19:58.162944", "MEAN_MOTION": 1.00271461, "ECCENTRICITY": 0.00011057, "INCLINATION": 3.2625, "RA_OF_ASC_NODE": 80.515, "ARG_OF_PERICENTER": 90.8442, "MEAN_ANOMALY": 164.6949, "EPHEMERIS_TYPE": 0, "CLASSIFICATION_TYPE": "U", "NORAD_CAT_ID": 27445, "ELEMENT_SET_NO": 999, "REV_AT_EPOCH": 4461, "BSTAR": 0, "MEAN_MOTION_DOT": -1.44e-06, "MEAN_MOTION_DDOT": 0}, "tle": {"line1": "1 27445U 02030A   25345.97220096 -.00000144  00000+0  00000+0 0  9999", "line2": "2 27445   3.2625  80.5150 0001105  90.8442 164.6949  1.00271461 44611"}}, "geometry": {"type": "Point", "coordinates": [102.19313403692097, 1.2231905424522125]}}, {"type": "Feature", "properties": {"norad_id": 27513, "name": "INTELSAT 906 (IS-906)", "group": "intelsat", "lat": -0.573700290932107, "lon": -98.79813352154231, "alt_km": 35760.304915068904, "timestamp": "2025-12-12T07:43:20.171079+00:00", "meta": {"OBJECT_NAME": "INTELSAT 906 (IS-906)", "OBJECT_ID": "2002-041A", "EPOCH": "2025-12-11T20:06:53.261280", "MEAN_MOTION": 1.00271417, "ECCENTRICITY": 0.00061629, "INCLINATION": 5.3265, "RA_OF_ASC_NODE": 75.242, "ARG_OF_PERICENTER": 192.0283, "MEAN_ANOMALY": 179.375, "EPHEMERIS_TYPE": 0, "CLASSIFICATION_TYPE": "U", "NORAD_CAT_ID": 27513, "ELEMENT_SET_NO": 999, "REV_AT_EPOCH": 8515, "BSTAR": 0, "MEAN_MOTION_DOT": 2.1e-07, "MEAN_MOTION_DDOT": 0}, "tle": {"line1": "1 27513U 02041A   25345.83811645  .00000021  00000+0  00000+0 0  9991", "line2": "2 27513   5.3265  75.2420 0006162 192.0283 179.3750  1.00271417 85155"}}, "geometry": {"type": "Point", "coordinates": [-98.79813352154231, -0.573700290932107]}}, {"type": "Feature", "properties": {"norad_id": 27954, "name": "GALAXY 13 (HORIZONS-1)", "group": "intelsat", "lat": -0.5749323890618226, "lon": 47.10886433910577, "alt_km": 35794.068544689006, "timestamp": "2025-12-12T07:43:20.171104+00:00", "meta": {"OBJECT_NAME": "GALAXY 13 (HORIZONS-1)", "OBJECT_ID": "2003-044A", "EPOCH": "2025-12-11T17:56:04.648128", "MEAN_MOTION": 1.00271098, "ECCENTRICITY": 0.00020423, "INCLINATION": 0.933, "RA_OF_ASC_NODE": 86.4823, "ARG_OF_PERICENTER": 166.2979, "MEAN_ANOMALY": 306.9395, "EPHEMERIS_TYPE": 0, "CLASSIFICATION_TYPE": "U", "NORAD_CAT_ID": 27954, "ELEMENT_SET_NO": 999, "REV_AT_EPOCH": 4469, "BSTAR": 0, "MEAN_MOTION_DOT": 1.41e-06, "MEAN_MOTION_DDOT": 0}, "tle": {"line1": "1 27954U 03044A   25345.74727602  .00000141  00000+0  00000+0 0  9996", "line2": "2 27954   0.9330  86.4823 0002042 166.2979 306.9395  1.00271098 44699"}}, "geometry": {"type": "Point", "coordinates": [47.10886433910577, -0.5749323890618226]}}, {"type": "Feature", "properties": {"norad_id": 28358, "name": "INTELSAT 10-02", "group": "intelsat", "lat": 0.004422438805659885, "lon": -163.8788399969527, "alt_km": 35787.32214365728, "timestamp": "2025-12-12T07:43:20.171120+00:00", "meta": {"OBJECT_NAME": "INTELSAT 10-02", "OBJECT_ID": "2004-022A", "EPOCH": "2025-12-11T22:04:03.397728", "MEAN_MOTION": 1.00271494, "ECCENTRICITY": 0.00012098, "INCLINATION": 0.0228, "RA_OF_ASC_NODE": 63.4531, "ARG_OF_PERICENTER": 236.1974, "MEAN_ANOMALY": 111.2735, "EPHEMERIS_TYPE": 0, "CLASSIFICATION_TYPE": "U", "NORAD_CAT_ID": 28358, "ELEMENT_SET_NO": 999, "REV_AT_EPOCH": 7867, "BSTAR": 0, "MEAN_MOTION_DOT": -2e-08, "MEAN_MOTION_DDOT": 0}, "tle": {"line1": "1 28358U 04022A   25345.91948377 -.00000002  00000+0  00000+0 0  9992", "line2": "2 28358   0.0228  63.4531 0001209 236.1974 111.2735  1.00271494 78672"}}, "geometry": {"type": "Point", "coordinates": [-163.8788399969527, 0.004422438805659885]}}, {"type": "Feature", "properties": {"norad_id": 28626, "name": "XM-3 (RHYTHM)", "group": "intelsat", "lat": -0.14350034935692696, "lon": -46.60236324192394, "alt_km": 36154.937207281684, "timestamp": "2025-12-12T07:43:20.171134+00:00", "meta": {"OBJECT_NAME": "XM-3 (RHYTHM)", "OBJECT_ID": "2005-008A", "EPOCH": "2025-12-11T22:38:00.148128", "MEAN_MOTION": 0.98952782, "ECCENTRICITY": 0.00015113, "INCLINATION": 0.1728, "RA_OF_ASC_NODE": 81.4536, "ARG_OF_PERICENTER": 269.1876, "MEAN_ANOMALY": 187.8641, "EPHEMERIS_TYPE": 0, "CLASSIFICATION_TYPE": "U", "NORAD_CAT_ID": 28626, "ELEMENT_SET_NO": 999, "REV_AT_EPOCH": 4074, "BSTAR": 0, "MEAN_MOTION_DOT": -1.75e-06, "MEAN_MOTION_DDOT": 0}, "tle": {"line1": "1 28626U 05008A   25345.94305727 -.00000175  00000+0  00000+0 0  9995", "line2": "2 28626   0.1728  81.4536 0001511 269.1876 187.8641  0.98952782 40748"}}, "geometry": {"type": "Point", "coordinates": [-46.60236324192394, -0.14350034935692696]}}]}